STARLINK-37199          
1 68327U 26059G   26095.17738332  .00391117  00000+0  18850-2 0  9999
2 68327  53.1611 230.0929 0000692 177.3783 182.7244 15.81006905  2165
STARLINK-36245          
1 68328U 26059H   26095.17588209  .00523786  00000+0  24800-2 0  9997
2 68328  53.1600 230.0824 0000551 100.3078 259.8007 15.81042169  2160
STARLINK-37204          
1 68329U 26059J   26095.17663764  .00540713  00000+0  25571-2 0  9993
2 68329  53.1598 230.0875 0000239 159.4068 200.6965 15.81023093  2162
STARLINK-37001          
1 68330U 26059K   26095.23835808  .00294476  00000+0  14403-2 0  9996
2 68330  53.1606 229.7611 0000778 349.8322  10.2685 15.80946266  2173
STARLINK-36932          
1 68331U 26059L   26095.23760515  .00341482  00000+0  16605-2 0  9995
2 68331  53.1602 229.7554 0000260  83.5120 276.5932 15.80945196  2173
STARLINK-37205          
1 68332U 26059M   26095.23685254  .00298426  00000+0  14595-2 0  9997
2 68332  53.1603 229.7507 0000488  15.6177 344.4860 15.80937522  2172
STARLINK-37180          
1 68333U 26059N   26095.23610005  .00302525  00000+0  14784-2 0  9996
2 68333  53.1603 229.7456 0001241   9.4791 350.6255 15.80943696  2173
STARLINK-37191          
1 68334U 26059P   26095.23535014  .00241354  00000+0  11900-2 0  9992
2 68334  53.1603 229.7398 0000372 179.6186 180.4838 15.80918214  2175
STARLINK-37217          
1 68335U 26059Q   26095.23459318  .00266348  00000+0  13082-2 0  9998
2 68335  53.1600 229.7349 0000572  16.6181 343.4860 15.80931454  2173
STARLINK-37143          
1 68336U 26059R   26095.10742276  .00525197  00000+0  24921-2 0  9997
2 68336  53.1599 230.3637 0002238  80.4480 279.6796 15.80995361  2154
STARLINK-36237          
1 68337U 26059S   26095.23309943  .00236429  00000+0  11642-2 0  9995
2 68337  53.1603 229.7251 0000533  76.0354 284.0728 15.80959182  2170
STARLINK-36254          
1 68338U 26059T   26095.16668981  .00156574  00000+0  78223-3 0  9999
2 68338  53.1596 230.0401 0001598 126.9186 223.4781 15.80880616  3299
STARLINK-37200          
1 68339U 26059U   26095.16668981  .00064832  00000+0  32940-3 0  9991
2 68339  53.1599 230.0490 0001296  55.9587 290.2338 15.80882467  3298
STARLINK-37185          
1 68340U 26059V   26095.16668981  .00049300  00000+0  25165-3 0  9997
2 68340  53.1597 230.0311 0000776  71.4249 283.3083 15.80894434  3297
STARLINK-37181          
1 68341U 26059W   26095.16668981  .00043718  00000+0  22372-3 0  9992
2 68341  53.1598 230.0224 0001208 113.9495 245.0616 15.80892179  3299
STARLINK-37192          
1 68342U 26059X   26095.16668981  .00027286  00000+0  14114-3 0  9990
2 68342  53.1596 230.0047 0000728  14.3042 353.2425 15.80904122  3291
